localityId,localityName,dataId,x,y,latitude,longitude,zone,altitude,horiz_precision,vert_precision,planeType,dip,dipAzimuth,strike,declination,rockUnit,timedate,notes
3a42c2c0d0b5b66854bd2128a2d1ad6a,Locality 2,6e51610623e6492fa78fe846edc83bf9,574680.820469,5606218.228885,50.603074,100.055323,47U,1892.330856,5,3, Bedding,88,283,193,-2.249, Middle Erkhelnuur,Sat Jun 15 23:42:45 2019,
3a42c2c0d0b5b66854bd2128a2d1ad6a,Locality 2,75d88bbc49f7ed30b940d7906125ea77,574565.723067,5606227.353895,50.603171,100.053699,47U,1886.04863,5,4, Bedding,82,89,359,-2.249, Middle Erkhelnuur,Sat Jun 15 23:38:03 2019,
3a42c2c0d0b5b66854bd2128a2d1ad6a,Locality 2,a710236ed09087ae86be3b45245d1c6a,574410.936382,5606292.590984,50.603777,100.051525,47U,1890.2603,5,3, Bedding,49,284,194,-2.249, Middle Erkhelnuur,Sat Jun 15 23:31:01 2019,
3a42c2c0d0b5b66854bd2128a2d1ad6a,Locality 2,108d84eca47b332d37af46b270c9e809,574153.549917,5606246.373332,50.603394,100.047879,47U,1896.643112,10,6, Bedding,81,113,23,-2.249, Lower erkhelnuur,Sat Jun 15 23:22:07 2019,
3a42c2c0d0b5b66854bd2128a2d1ad6a,Locality 2,149254ed7ce33ec933dc524aee214580,574143.890732,5606256.099398,50.603483,100.047745,47U,1901.113327,5,6, Bedding,74,103,13,-2.249, Lower erkhelnuur,Sat Jun 15 23:20:34 2019," No bioturb; grainstone"
3a42c2c0d0b5b66854bd2128a2d1ad6a,Locality 2,5160d16f5aaf8454c07e68f63a7f8066,574108.700431,5606245.497218,50.603392,100.047246,47U,1900.356491,5,6, Bedding,60,77,347,-2.249, Arcai Gol,Sat Jun 15 23:18:58 2019,
3a42c2c0d0b5b66854bd2128a2d1ad6a,Locality 2,4876bcc27cfd247ee54eb67d4fd319fe,574103.506685,5606238.553601,50.60333,100.047171,47U,1898.544724,5,4, Bedding,63,92,2,-2.249, Arcai Gol,Sat Jun 15 23:16:11 2019,
3a42c2c0d0b5b66854bd2128a2d1ad6a,Locality 2,cb15774f7309253c356eec268ff30c6e,574044.711959,5606172.787011,50.602746,100.046327,47U,1898.00737,5,6, Bedding,66,81,351,-2.249, Arcai Gol,Sat Jun 15 20:32:49 2019,
3a42c2c0d0b5b66854bd2128a2d1ad6a,Locality 2,4cdcd695c6b211d7785004b8c5f35def,574199.613344,5607373.313819,50.613521,100.048755,47U,1909.332077,5,6, Bedding,48,73,343,-2.249, Upper erkhelnuur,Thu Jun 13 03:16:48 2019,
3a42c2c0d0b5b66854bd2128a2d1ad6a,Locality 2,b1b17e3f3450daa8ca57c7476d8f0713,574311.737452,5608634.133674,50.624844,100.050592,47U,1938.950241,10,12, Bedding,68,128,38,-2.249, Middle Erkhelnuur,Thu Jun 13 02:56:58 2019,
3a42c2c0d0b5b66854bd2128a2d1ad6a,Locality 2,cd9385b03031cd1359757f2cf65b5033,574441.214636,5608672.629332,50.625173,100.05243,47U,1943.15947,50,12, Bedding,35,130,40,-2.249, Middle Erkhelnuur,Thu Jun 13 02:50:04 2019,
3a42c2c0d0b5b66854bd2128a2d1ad6a,Locality 2,590adad7be941aaf0ef8e1b4e09bac6a,574731.962467,5608753.528013,50.625864,100.056556,47U,1951.54985,5,4, Bedding,34,183,93,-2.249, Middle Erkhelnuur,Thu Jun 13 02:42:16 2019, S limb
3a42c2c0d0b5b66854bd2128a2d1ad6a,Locality 2,20b2897785db61306aab6e2212a5998e,574735.035065,5608755.953584,50.625885,100.0566,47U,1952.324509,10,6, Bedding,51,246,156,-2.249, Middle Erkhelnuur,Thu Jun 13 02:41:53 2019, N limb
3a42c2c0d0b5b66854bd2128a2d1ad6a,Locality 2,469b1127a3746eef53831f41dc379a96,574800.211937,5608860.445779,50.626816,100.057543,47U,1947.188522,5,4, Bedding,76,89,359,-2.249, Middle Erkhelnuur,Thu Jun 13 02:36:50 2019,
3a42c2c0d0b5b66854bd2128a2d1ad6a,Locality 2,350095b825637342535d9290d05d7d17,574888.465801,5608891.335833,50.627083,100.058797,47U,1946.181198,5,4, Bedding,7,59,329,-2.249, Middle Erkhelnuur,Thu Jun 13 02:32:20 2019,
3a42c2c0d0b5b66854bd2128a2d1ad6a,Locality 2,695e4489d7c3d6ae78f637203e5871d2,574927.378861,5608969.101302,50.627777,100.059362,47U,1946.617233,5,4, Bedding,20,349,259,-2.249, Middle Erkhelnuur,Thu Jun 13 02:30:54 2019,
3a42c2c0d0b5b66854bd2128a2d1ad6a,Locality 2,41cee47d62acb53041325517f277c6b2,575066.784366,5609049.214244,50.628479,100.061349,47U,1954.046921,5,3, Bedding,42,94,4,-2.249, Middle Erkhelnuur,Thu Jun 13 02:28:13 2019,
3a42c2c0d0b5b66854bd2128a2d1ad6a,Locality 2,49588f8b54035597b0ee5ea250170690,575159.818472,5609092.519782,50.628857,100.062673,47U,1951.913864,5,4, Bedding,9,44,314,-2.249, Middle Erkhelnuur,Thu Jun 13 02:25:40 2019,
3a42c2c0d0b5b66854bd2128a2d1ad6a,Locality 2,775e3a876928ea54ae918d617a21a4d7,575204.783174,5609122.93923,50.629124,100.063315,47U,1955.203171,5,6, Bedding,15,67,337,-2.249, Middle Erkhelnuur,Thu Jun 13 02:24:50 2019,
3a42c2c0d0b5b66854bd2128a2d1ad6a,Locality 2,b35a2d449e0eb1e4233b6837115d7a92,575236.769335,5609138.816872,50.629263,100.06377,47U,1956.727585,5,4, Bedding,13,123,33,-2.249, Middle Erkhelnuur,Thu Jun 13 02:23:44 2019,
3a42c2c0d0b5b66854bd2128a2d1ad6a,Locality 2,db5ad38fa56f3c533f7ef0c0c8e0d1d0,575248.056916,5609164.964005,50.629497,100.063935,47U,1957.990768,5,4, Bedding,15,44,314,-2.249, Middle Erkhelnuur,Thu Jun 13 02:23:13 2019,
3a42c2c0d0b5b66854bd2128a2d1ad6a,Locality 2,c4720f15f32e88d895a43bf45bcae5aa,575246.132206,5609182.149458,50.629651,100.063911,47U,1957.834518,5,4, Bedding,21,315,225,-2.249, Middle Erkhelnuur,Thu Jun 13 02:22:11 2019,
3a42c2c0d0b5b66854bd2128a2d1ad6a,Locality 2,434925505ce7f6532001bba464259fce,575248.611977,5609182.46938,50.629654,100.063947,47U,1958.625046,5,4, Bedding,22,331,241,-2.249, Middle Erkhelnuur,Thu Jun 13 02:21:56 2019,
3a42c2c0d0b5b66854bd2128a2d1ad6a,Locality 2,61e4c68509327357d1a2a17d3771a697,575271.144774,5609195.158574,50.629765,100.064268,47U,1957.667282,10,4, Bedding,29,90,0,-2.249, Middle Erkhelnuur,Thu Jun 13 02:21:16 2019,
3a42c2c0d0b5b66854bd2128a2d1ad6a,Locality 2,0e27939bd4043977c77c979165f63312,575289.355984,5609220.165415,50.629988,100.06453,47U,1964.187546,10,4, Bedding,25,58,328,-2.249, Middle Erkhelnuur,Thu Jun 13 02:20:29 2019,
3a42c2c0d0b5b66854bd2128a2d1ad6a,Locality 2,3de7ae0a96ad18ca1b0a3f09da9d6b41,575284.955403,5609248.310603,50.630241,100.064474,47U,1965.360886,5,4, Bedding,34,68,338,-2.249, Middle Erkhelnuur,Thu Jun 13 02:19:20 2019,
3a42c2c0d0b5b66854bd2128a2d1ad6a,Locality 2,7cca4080153fb5796227a869348712e1,575313.930861,5609280.943762,50.630531,100.06489,47U,1971.95903,10,6, Bedding,65,79,349,-2.249, Middle Erkhelnuur,Thu Jun 13 02:18:35 2019,
3a42c2c0d0b5b66854bd2128a2d1ad6a,Locality 2,8c508819de90cd26be9e814ddaa837f9,575339.975258,5609287.298151,50.630585,100.065259,47U,1971.538132,5,6, Bedding,46,84,354,-2.249, Middle Erkhelnuur,Thu Jun 13 02:14:59 2019,
3a42c2c0d0b5b66854bd2128a2d1ad6a,Locality 2,a5c0b41ffc16c02123b062b143306ddd,575342.732435,5609295.951326,50.630662,100.0653,47U,1961.665573,10,3, Bedding,54,265,175,-2.249, Middle Erkhelnuur,Thu Jun 13 02:12:52 2019, Left limb bedding
3a42c2c0d0b5b66854bd2128a2d1ad6a,Locality 2,8659f9b8cd225a5e114c32a8668a9535,575345.859517,5609301.55686,50.630712,100.065345,47U,1958.084518,5,4, Bedding,40,38,308,-2.249, Middle Erkhelnuur,Thu Jun 13 02:10:23 2019, Right limb bedding
3a42c2c0d0b5b66854bd2128a2d1ad6a,Locality 2,53a717288b74292539901cd02daa950a,575351.968308,5609231.324082,50.63008,100.065418,47U,1962.098679,5,4, Bedding,25,29,299,-2.249, Middle Erkhelnuur,Thu Jun 13 02:08:22 2019,
3a42c2c0d0b5b66854bd2128a2d1ad6a,Locality 2,0e97991658db901aa0cd3a5c45481960,575367.159212,5609219.349309,50.62997,100.06563,47U,1966.827194,5,6, Bedding,47,76,346,-2.249, Middle Erkhelnuur,Thu Jun 13 02:07:51 2019,
3a42c2c0d0b5b66854bd2128a2d1ad6a,Locality 2,50e9c0c31d099cdf8bd44a7022ddc014,575373.780246,5609216.596647,50.629945,100.065723,47U,1964.152145,30,16, Bedding,77,87,357,-2.249, Middle Erkhelnuur,Thu Jun 13 02:07:21 2019,
3a42c2c0d0b5b66854bd2128a2d1ad6a,Locality 2,d1cf6e87a6deb6fd72768e74e0cafdc0,575381.731908,5609209.961868,50.629884,100.065834,47U,1974.406784,5,6, Bedding,64,86,356,-2.249, Middle Erkhelnuur,Thu Jun 13 02:06:37 2019,
3a42c2c0d0b5b66854bd2128a2d1ad6a,Locality 2,00120a5b809b7b947581165348b0515c,575439.824487,5609272.313687,50.630437,100.066668,47U,1969.486618,10,6, Bedding,38,51,321,-2.249, Middle Erkhelnuur,Thu Jun 13 02:04:29 2019,
3a42c2c0d0b5b66854bd2128a2d1ad6a,Locality 2,f869e6e11a201beaf8ba78aa6799b83d,575450.642009,5609324.02016,50.630901,100.066831,47U,1967.832077,10,6, Bedding,53,61,331,-2.249, Middle Erkhelnuur,Thu Jun 13 02:01:58 2019,
3a42c2c0d0b5b66854bd2128a2d1ad6a,Locality 2,fc2c4d7ea6b16043765f67ca32bfe3f4,575561.90867,5609432.942943,50.631866,100.068426,47U,1961.49028,5,4, Bedding,33,83,353,-2.249, Upper erkhelnuur,Thu Jun 13 01:58:01 2019,
3a42c2c0d0b5b66854bd2128a2d1ad6a,Locality 2,5db74d2f158d6f7d2962d50dd3ff900d,575549.517295,5609574.817972,50.633143,100.06828,47U,1979.30864,10,6, Bedding,40,82,352,-2.249, Upper erkhelnuur,Thu Jun 13 01:54:23 2019,
3a42c2c0d0b5b66854bd2128a2d1ad6a,Locality 2,48624b24f4757877211eb3ae0d3ae2cb,575647.491072,5609652.877027,50.633832,100.069681,47U,1981.059128,30,8, Bedding,32,95,5,-2.249, Upper erkhelnuur,Thu Jun 13 01:51:08 2019,
3a42c2c0d0b5b66854bd2128a2d1ad6a,Locality 2,4fc450da577033dfcfd9f533bd0c7d19,575650.89297,5609666.102826,50.633951,100.069732,47U,1974.141647,5,4, Bedding,33,68,338,-2.249, Upper erkhelnuur,Thu Jun 13 01:50:32 2019,
3a42c2c0d0b5b66854bd2128a2d1ad6a,Locality 2,1fc7d396a2071dfe311d91e3e00490d0,575676.528569,5609657.910675,50.633874,100.070093,47U,1972.620407,5,4, Bedding,32,112,22,-2.249, Middle Erkhelnuur,Thu Jun 13 01:49:19 2019,
3a42c2c0d0b5b66854bd2128a2d1ad6a,Locality 2,3b37f939c4e3e46b589b32e74a531348,575697.174648,5609645.446998,50.633759,100.070382,47U,1972.96489,5,6, Bedding,63,301,211,-2.249, Middle Erkhelnuur,Thu Jun 13 01:48:15 2019,
3a42c2c0d0b5b66854bd2128a2d1ad6a,Locality 2,745c7233ab5737e12cc3a01ec0a2dad9,575701.300492,5609647.128629,50.633773,100.070441,47U,1969.213425,5,4, Bedding,72,99,9,-2.249, Middle Erkhelnuur,Thu Jun 13 01:47:14 2019,
3a42c2c0d0b5b66854bd2128a2d1ad6a,Locality 2,c038a70b0a2a3811252fbed82e39f594,575721.209421,5609676.237611,50.634033,100.070728,47U,1975.859421,0,0, Bedding,22,282,192,-2.249, Middle Erkhelnuur,Thu Jun 13 01:44:47 2019,
3a42c2c0d0b5b66854bd2128a2d1ad6a,Locality 2,7dc1a7d1d876ab2c32dc2acd254f1898,575722.284275,5609675.719505,50.634028,100.070743,47U,1974.00322,5,4, Bedding,65,91,1,-2.249, Middle Erkhelnuur,Thu Jun 13 01:43:39 2019,
3a42c2c0d0b5b66854bd2128a2d1ad6a,Locality 2,9410ceecd965d6adf8bb57a62391356d,575720.783935,5609673.693588,50.63401,100.070722,47U,1976.373093,5,4, Bedding,55,57,327,-2.249, Middle Erkhelnuur,Thu Jun 13 01:43:26 2019,
3a42c2c0d0b5b66854bd2128a2d1ad6a,Locality 2,e19f9f20dce9c58fe84ccba70095e28e,575765.544108,5609684.478246,50.634101,100.071357,47U,1981.898483,5,4, Bedding,56,91,1,-2.249, Middle Erkhelnuur,Thu Jun 13 01:42:06 2019,
3a42c2c0d0b5b66854bd2128a2d1ad6a,Locality 2,85b140b81f2b93759f21e7ba8a567b47,575767.543146,5609668.822822,50.63396,100.071382,47U,1991.601608,10,6, Bedding,54,108,18,-2.249, Middle Erkhelnuur,Thu Jun 13 01:39:27 2019,
3a42c2c0d0b5b66854bd2128a2d1ad6a,Locality 2,d07b343d83d8543f90384758c61c8b76,575755.309833,5609684.978172,50.634107,100.071212,47U,1980.44194,10,12, Bedding,55,106,16,-2.249, Middle Erkhelnuur,Thu Jun 13 01:39:11 2019,
3a42c2c0d0b5b66854bd2128a2d1ad6a,Locality 2,18e7bd758c7730c17a201af79abdee37,575776.275826,5609695.498249,50.634199,100.071511,47U,1976.081345,5,4, Bedding,40,93,3,-2.249, Middle Erkhelnuur,Thu Jun 13 01:37:58 2019,
3a42c2c0d0b5b66854bd2128a2d1ad6a,Locality 2,14aa8f6d2fa6d6476c5c4edcc21b2d03,575774.215819,5609734.229494,50.634547,100.071489,47U,1981.368942,5,3, Bedding,58,321,231,-2.249, Middle Erkhelnuur,Thu Jun 13 01:33:45 2019,
3a42c2c0d0b5b66854bd2128a2d1ad6a,Locality 2,7dc3bc060a7d2c399a6d0aff11f25e3e,575937.64722,5609763.573218,50.63479,100.073806,47U,1980.281784,10,6, Bedding,74,97,7,-2.249, Middle Erkhelnuur,Thu Jun 13 01:29:20 2019,
3a42c2c0d0b5b66854bd2128a2d1ad6a,Locality 2,9d7febbd868d80b9b6d4be1e3a63681e,575937.626961,5609764.971232,50.634802,100.073806,47U,1983.250046,5,4, Bedding,75,86,356,-2.249, Middle Erkhelnuur,Thu Jun 13 01:28:48 2019,
3a42c2c0d0b5b66854bd2128a2d1ad6a,Locality 2,2d90bf26970f39da6962efc752cf2ecb,575956.541781,5609786.070813,50.63499,100.074078,47U,1988.977097,10,6, Bedding,86,97,7,-2.249, Middle Erkhelnuur,Thu Jun 13 01:27:33 2019,
3a42c2c0d0b5b66854bd2128a2d1ad6a,Locality 2,9040e8ea181a2641c12a5798f4d0578e,576010.144012,5609757.758588,50.634728,100.07483,47U,1991.93486,10,6, Bedding,82,97,7,-2.249, Middle Erkhelnuur,Thu Jun 13 01:26:32 2019,
3a42c2c0d0b5b66854bd2128a2d1ad6a,Locality 2,8fdc7283391b63d92723d9594cdb50ec,576027.931549,5609738.034812,50.634548,100.075077,47U,1990.987595,10,6, Bedding,80,82,352,-2.249, Middle Erkhelnuur,Thu Jun 13 01:25:13 2019, Stretched clasts of dark ls
3a42c2c0d0b5b66854bd2128a2d1ad6a,Locality 2,2a01018b255c5e63842219ba74251198,576143.753126,5609703.425699,50.634222,100.076708,47U,1991.431198,10,8, Bedding,86,94,4,-2.249, Lower erkhelnuur,Thu Jun 13 01:20:27 2019,
3a42c2c0d0b5b66854bd2128a2d1ad6a,Locality 2,9a5765187d42abccf32a59ccda2473fc,576195.426872,5609750.791719,50.634641,100.077448,47U,1995.001022,5,4, Bedding,89,94,4,-2.249, Lower erkhelnuur,Thu Jun 13 01:17:33 2019,
3a42c2c0d0b5b66854bd2128a2d1ad6a,Locality 2,0d474e04e65e46f3c6f3766872924930,576285.183971,5609734.297101,50.634481,100.078714,47U,1998.526901,5,6, Bedding,87,88,358,-2.249, Lower erkhelnuur,Thu Jun 13 01:15:07 2019,
3a42c2c0d0b5b66854bd2128a2d1ad6a,Locality 2,82be512c389c692df025e449e286887c,576357.577674,5609842.224253,50.635442,100.079759,47U,2001.747604,10,4, Bedding,81,95,5,-2.249, Lower erkhelnuur,Thu Jun 13 01:12:58 2019,
3a42c2c0d0b5b66854bd2128a2d1ad6a,Locality 2,ca6980a37a48ef7fbaa2d039ff319092,576430.536834,5609847.361634,50.635479,100.080792,47U,1997.95903,5,4, Bedding,71,74,344,-2.249, Lower erkhelnuur,Thu Jun 13 01:11:44 2019,
3a42c2c0d0b5b66854bd2128a2d1ad6a,Locality 2,f4136deb1a404dd18714894a40af4027,576478.72833,5609838.551581,50.635393,100.081471,47U,2013.715134,5,3, Bedding,67,61,331,-2.249, Lower erkhelnuur,Thu Jun 13 01:10:43 2019,
3a42c2c0d0b5b66854bd2128a2d1ad6a,Locality 2,62d641eb2a535e131926b54e29398a69,576520.3802,5609897.986576,50.635922,100.082072,47U,1993.820847,5,4, Bedding,72,279,189,-2.249, Lower erkhelnuur,Thu Jun 13 01:09:19 2019,
3a42c2c0d0b5b66854bd2128a2d1ad6a,Locality 2,e1cad78c35a776c5f8c467138dce4dfd,576617.982486,5609932.781135,50.636222,100.08346,47U,2003.226608,5,4, Bedding,77,98,8,-2.249, Arcai Gol,Thu Jun 13 00:50:09 2019,
3a42c2c0d0b5b66854bd2128a2d1ad6a,Locality 2,6388bc24358a241c6593e37bb2630424,576770.290799,5609983.387307,50.636657,100.085623,47U,2005.110153,5,4, Bedding,75,73,343,-2.249, Middle Erkhelnuur,Thu Jun 13 00:41:52 2019,
3a42c2c0d0b5b66854bd2128a2d1ad6a,Locality 2,8e1ca3b8f808af5f38865063189d02cf,576866.227053,5609959.381732,50.636429,100.086975,47U,2019.715866,5,4, Bedding,82,302,212,-2.249, Middle Erkhelnuur,Thu Jun 13 00:37:53 2019,
3a42c2c0d0b5b66854bd2128a2d1ad6a,Locality 2,043fc88c8cb163e063c4807d14da625f,576919.028987,5609943.423407,50.636278,100.087718,47U,2019.376266,5,6, Bedding,82,97,7,-2.249, Middle Erkhelnuur,Thu Jun 13 00:35:05 2019,
3a42c2c0d0b5b66854bd2128a2d1ad6a,Locality 2,664f5ded5aebc16b2619e8291fa343d1,577011.313392,5609864.650822,50.635558,100.089006,47U,2054.290085,5,4, Bedding,61,91,1,-2.249, Middle Erkhelnuur,Thu Jun 13 00:27:25 2019,
3a42c2c0d0b5b66854bd2128a2d1ad6a,Locality 2,6d78c3a73e6a0247f5c8d4ac5370b99e,576809.900887,5609630.53497,50.633479,100.08611,47U,2177.079147,5,4, Bedding,55,90,0,-2.249, Middle Erkhelnuur,Thu Jun 13 00:18:25 2019,
3a42c2c0d0b5b66854bd2128a2d1ad6a,Locality 2,d76dd55703e53d17ac50aa865746b0da,576776.511509,5609590.753129,50.633126,100.08563,47U,2196.645798,5,4, Bedding,66,121,31,-2.249, Middle Erkhelnuur,Thu Jun 13 00:15:05 2019,
3a42c2c0d0b5b66854bd2128a2d1ad6a,Locality 2,5ef1ec72f0551761ca330ffc84a37e81,576765.299882,5609581.04774,50.63304,100.08547,47U,2203.760056,5,4, Bedding,70,120,30,-2.249, Middle Erkhelnuur,Thu Jun 13 00:11:46 2019,
3a42c2c0d0b5b66854bd2128a2d1ad6a,Locality 2,efb69bdd359a074f8025ad9c357d0258,576781.304386,5609558.219378,50.632833,100.085691,47U,2219.020554,5,3, Bedding,80,138,48,-2.249, Middle Erkhelnuur,Thu Jun 13 00:10:48 2019,
3a42c2c0d0b5b66854bd2128a2d1ad6a,Locality 2,04a16ac957896dcb44613cec1e849018,576776.398148,5609496.910769,50.632282,100.085609,47U,2262.852585,10,6, Bedding,69,109,19,-2.249, Middle Erkhelnuur,Thu Jun 13 00:06:52 2019,
3a42c2c0d0b5b66854bd2128a2d1ad6a,Locality 2,d3c752acff389aef7bea7f7f50ee47ef,576792.873517,5609447.22777,50.631833,100.085832,47U,2287.998093,5,6, Bedding,61,136,46,-2.249, Middle Erkhelnuur,Thu Jun 13 00:01:42 2019,
3a42c2c0d0b5b66854bd2128a2d1ad6a,Locality 2,fe7f52224d161e0147578dbd3dcd1e5b,576795.582905,5609432.673759,50.631702,100.085867,47U,2295.194626,5,3, Bedding,64,137,47,-2.249, Middle Erkhelnuur,Thu Jun 13 00:01:02 2019,
3a42c2c0d0b5b66854bd2128a2d1ad6a,Locality 2,9bb069858804ce8d28d2951b01afcf48,576796.027918,5609427.795511,50.631658,100.085872,47U,2292.572067,5,3, Bedding,71,130,40,-2.249, Middle Erkhelnuur,Thu Jun 13 00:00:47 2019,
3a42c2c0d0b5b66854bd2128a2d1ad6a,Locality 2,fb5089f67cc3557e38c1f28c379c11ff,576815.324468,5609363.648766,50.631079,100.086132,47U,2321.705124,5,3, Bedding,50,76,346,-2.249, Middle Erkhelnuur,Wed Jun 12 23:57:55 2019,
3a42c2c0d0b5b66854bd2128a2d1ad6a,Locality 2,4cbab25ee0ba145829a0c2d794155b0c,576562.498931,5609162.032533,50.629299,100.082516,47U,2348.728317,5,3, Bedding,74,77,347,-2.249, Lower erkhelnuur,Wed Jun 12 23:49:49 2019,
3a42c2c0d0b5b66854bd2128a2d1ad6a,Locality 2,4158abf0d29ea2bb9cfdaacc18c4f4c6,576525.327329,5609133.640024,50.629049,100.081985,47U,2353.782028,5,6, Bedding,75,96,6,-2.249, Lower erkhelnuur,Wed Jun 12 23:48:45 2019,
3a42c2c0d0b5b66854bd2128a2d1ad6a,Locality 2,88fa8bb4e12c26501752e1a50931293a,576477.025884,5609103.211648,50.628782,100.081296,47U,2356.206345,5,3, Bedding,70,118,28,-2.249, Lower erkhelnuur,Wed Jun 12 23:46:42 2019,
3a42c2c0d0b5b66854bd2128a2d1ad6a,Locality 2,1219aec7af196e01c02f20a9d7f57909,576470.455011,5609098.002628,50.628736,100.081202,47U,2354.792282,5,4, Bedding,64,124,34,-2.249, Lower erkhelnuur,Wed Jun 12 23:45:20 2019,
3a42c2c0d0b5b66854bd2128a2d1ad6a,Locality 2,92cc19dbf33bd049d133e20749473d92,576446.921349,5609098.395776,50.628742,100.080869,47U,2351.235641,5,4, Bedding,65,60,330,-2.249, Lower erkhelnuur,Wed Jun 12 23:44:26 2019,
3a42c2c0d0b5b66854bd2128a2d1ad6a,Locality 2,d7451476aa831d93505981d1a4d52068,576430.725524,5609090.44092,50.628673,100.080638,47U,2345.738815,5,4, Bedding,72,91,1,-2.249, Lower erkhelnuur,Wed Jun 12 23:43:43 2019,
3a42c2c0d0b5b66854bd2128a2d1ad6a,Locality 2,99803435bb2f2a21d8c1d5b1ad7c134a,576425.236908,5609093.148183,50.628698,100.080561,47U,2341.78154,5,3, Bedding,75,110,20,-2.249, Lower erkhelnuur,Wed Jun 12 23:40:41 2019,
3a42c2c0d0b5b66854bd2128a2d1ad6a,Locality 2,c957aca364468803e2ff502eea885af6,576413.743072,5609094.1412,50.628708,100.080399,47U,2336.15654,5,3, Bedding,50,51,321,-2.249, Lower erkhelnuur,Wed Jun 12 23:39:39 2019,
3a42c2c0d0b5b66854bd2128a2d1ad6a,Locality 2,c63e2beca7d06548609dc1386d168be7,576342.781823,5609185.595901,50.62954,100.079415,47U,2319.320847,5,6, Bedding,76,85,355,-2.249, Lower erkhelnuur,Wed Jun 12 23:35:22 2019,
3a42c2c0d0b5b66854bd2128a2d1ad6a,Locality 2,2082cdddcbc08460b924651fd8ff00af,576333.844544,5609191.012353,50.62959,100.07929,47U,2335.074265,5,6, Bedding,76,102,12,-2.249, Lower erkhelnuur,Wed Jun 12 23:26:58 2019,
3a42c2c0d0b5b66854bd2128a2d1ad6a,Locality 2,a3c473fddf7fa8c7a9f74e673c679e82,576341.414087,5609176.100112,50.629455,100.079394,47U,2330.419968,5,3, Bedding,80,90,0,-2.249, Lower erkhelnuur,Wed Jun 12 23:26:26 2019,
3a42c2c0d0b5b66854bd2128a2d1ad6a,Locality 2,c01b2c323bf6f8bbdc4039312de9d0f9,576347.987241,5609137.192384,50.629104,100.079478,47U,2323.903854,10,6, Bedding,82,95,5,-2.249, Lower erkhelnuur,Wed Jun 12 23:25:48 2019,
3a42c2c0d0b5b66854bd2128a2d1ad6a,Locality 2,48e4313c87fa90ffbb6cc45556850485,576357.745829,5608804.31358,50.62611,100.079548,47U,2272.354538,5,3, Bedding,81,78,348,-2.249, Lower erkhelnuur,Wed Jun 12 23:08:49 2019,
3a42c2c0d0b5b66854bd2128a2d1ad6a,Locality 2,56751c8f47a33945840b9a531ab21fb3,576454.757606,5608710.726591,50.625255,100.0809,47U,2238.243942,5,4, Bedding,76,85,355,-2.249, Lower erkhelnuur,Wed Jun 12 22:52:44 2019, Rythmite
3a42c2c0d0b5b66854bd2128a2d1ad6a,Locality 2,6e7770bd108064c1231439768b6fd16c,576530.265284,5608628.484576,50.624506,100.08195,47U,2206.813522,5,3, Bedding,78,94,4,-2.249, Middle Erkhelnuur,Wed Jun 12 22:49:21 2019,
3a42c2c0d0b5b66854bd2128a2d1ad6a,Locality 2,cdfe702e20f610a691103c151b9b760d,576588.236285,5608547.320424,50.623769,100.082753,47U,2179.599655,10,6, Bedding,81,97,7,-2.249, Middle Erkhelnuur,Wed Jun 12 22:44:27 2019,
3a42c2c0d0b5b66854bd2128a2d1ad6a,Locality 2,5d7584cc8968bfada3a72def153c8b21,576477.511492,5608550.099303,50.623808,100.081188,47U,2167.817673,5,4, Bedding,60,107,17,-2.249, Middle Erkhelnuur,Wed Jun 12 22:42:01 2019,
3a42c2c0d0b5b66854bd2128a2d1ad6a,Locality 2,edbdfb35d4dceb742d253e63ffb6818e,576443.752208,5608559.017525,50.623893,100.080713,47U,2150.52153,10,6, Bedding,62,90,0,-2.249, Middle Erkhelnuur,Wed Jun 12 22:39:13 2019,
3a42c2c0d0b5b66854bd2128a2d1ad6a,Locality 2,9c57dc43add25cc47a2f437d941eae13,576320.193238,5608499.616338,50.623375,100.078954,47U,2141.988083,5,4, Bedding,73,82,352,-2.249, Lower erkhelnuur,Wed Jun 12 22:35:20 2019,
3a42c2c0d0b5b66854bd2128a2d1ad6a,Locality 2,9e6259eb733732a53012d3ec717c5299,576097.270178,5608674.417256,50.624976,100.075839,47U,2132.575485,5,6, Bedding,53,90,0,-2.249, Lower erkhelnuur,Wed Jun 12 21:35:43 2019,
3a42c2c0d0b5b66854bd2128a2d1ad6a,Locality 2,8309cb409d329891304e459874d0230a,576081.812399,5608697.199669,50.625183,100.075625,47U,2135.94902,5,4, Bedding,67,94,4,-2.249, Lower erkhelnuur,Wed Jun 12 21:32:01 2019,
3a42c2c0d0b5b66854bd2128a2d1ad6a,Locality 2,71b79e8dc4bb6b8b8865cae2dc6aeaaf,576046.324894,5608722.767787,50.625417,100.075129,47U,2134.341599,5,3, Bedding,71,92,2,-2.249, Lower erkhelnuur,Wed Jun 12 21:30:41 2019,
3a42c2c0d0b5b66854bd2128a2d1ad6a,Locality 2,b5ec0ce87a06e20142b891f55a4e7c7e,576030.298701,5608743.472608,50.625605,100.074907,47U,2131.031296,5,3, Bedding,74,84,354,-2.249, Lower erkhelnuur,Wed Jun 12 21:29:52 2019,
3a42c2c0d0b5b66854bd2128a2d1ad6a,Locality 2,8f5b6f786a18701edee44add881db354,575828.764432,5608692.116185,50.62517,100.072048,47U,2162.996872,5,3, Bedding,67,87,357,-2.249, Middle Erkhelnuur,Wed Jun 12 21:16:31 2019,
3a42c2c0d0b5b66854bd2128a2d1ad6a,Locality 2,486b1248272df0434382660ef6afbfc8,575848.363455,5608710.088271,50.625329,100.072328,47U,2153.846481,5,4, Bedding,83,108,18,-2.249, Middle Erkhelnuur,Wed Jun 12 21:13:29 2019,
3a42c2c0d0b5b66854bd2128a2d1ad6a,Locality 2,89d1f357e8ba22ed72bc59b661c6bcb1,575848.910359,5608710.81398,50.625335,100.072336,47U,2152.813034,5,3, Bedding,78,92,2,-2.249, Middle Erkhelnuur,Wed Jun 12 21:13:05 2019,
3a42c2c0d0b5b66854bd2128a2d1ad6a,Locality 2,e7cb7f40f33ba2ceb665e852427a171f,575871.34368,5608709.940742,50.625325,100.072653,47U,2154.178757,5,4, Bedding,68,101,11,-2.249, Middle Erkhelnuur,Wed Jun 12 21:08:44 2019,
3a42c2c0d0b5b66854bd2128a2d1ad6a,Locality 2,a5477b7f9037b03faa31500569f6ee83,575895.430666,5608735.333049,50.62555,100.072999,47U,2141.486374,5,4, Bedding,33,110,20,-2.249, Middle Erkhelnuur,Wed Jun 12 21:07:38 2019,
3a42c2c0d0b5b66854bd2128a2d1ad6a,Locality 2,e1481e6164b50b3be416d7fd7783a9ff,575951.289082,5608750.908175,50.625683,100.073792,47U,2123.567917,5,3, Bedding,77,105,15,-2.249, Lower erkhelnuur,Wed Jun 12 21:03:19 2019,
3a42c2c0d0b5b66854bd2128a2d1ad6a,Locality 2,1b4ff814db3345e73dd63091af982525,575964.149471,5608689.210225,50.625126,100.073961,47U,2098.957077,5,6, Bedding,63,93,3,-2.249, Lower erkhelnuur,Wed Jun 12 20:53:01 2019,
3a42c2c0d0b5b66854bd2128a2d1ad6a,Locality 2,ecd4bfd9cd5c2f801815c48e28560cdb,575925.539735,5608595.89203,50.624292,100.073396,47U,2080.776413,5,8, Bedding,65,94,4,-2.249, Lower erkhelnuur,Wed Jun 12 20:47:09 2019, Heavy bedding parallel foliation
3a42c2c0d0b5b66854bd2128a2d1ad6a,Locality 2,ca1383ad3de1660d3bd70ac8e73f2cf4,575955.63426,5608426.858196,50.622768,100.073787,47U,2041.776901,10,6, Bedding,74,85,355,-2.249, Lower erkhelnuur,Wed Jun 12 20:33:43 2019,
3a42c2c0d0b5b66854bd2128a2d1ad6a,Locality 2,e0dbd33c73270741574666cb6ee4b192,575981.114247,5608382.388472,50.622365,100.074138,47U,2028.578659,5,6, Bedding,62,89,359,-2.249, Lower erkhelnuur,Wed Jun 12 20:29:45 2019,
3a42c2c0d0b5b66854bd2128a2d1ad6a,Locality 2,7d8c7606f3c6d82182cc9fda26df387c,575989.436597,5608353.592169,50.622105,100.074249,47U,2026.239304,5,4, Bedding,64,83,353,-2.249, Lower erkhelnuur,Wed Jun 12 20:28:33 2019,
3a42c2c0d0b5b66854bd2128a2d1ad6a,Locality 2,8a6f12d04f7adbac99a296271e279849,575712.837305,5606799.64893,50.608169,100.070023,47U,1907.25322,5,4, Bedding,55,284,194,-2.249, Middle Erkhelnuur,Wed Jun 12 19:19:59 2019,
3a42c2c0d0b5b66854bd2128a2d1ad6a,Locality 2,2fb243b634c017ae3f2f0de00beb4e52,575658.072287,5606728.156093,50.607533,100.069234,47U,1908.495163,10,4, Bedding,57,99,9,-2.249, Middle Erkhelnuur,Wed Jun 12 19:16:53 2019,
3a42c2c0d0b5b66854bd2128a2d1ad6a,Locality 2,5856d18185ea61d4f7cebb3f4b3819d7,575581.823191,5606637.47259,50.606728,100.068138,47U,1905.585983,5,3, Bedding,73,102,12,-2.249, Middle Erkhelnuur,Wed Jun 12 19:11:29 2019,
3a42c2c0d0b5b66854bd2128a2d1ad6a,Locality 2,669cf4faa5e5f48918e69fb34d371e70,575576.100915,5606629.90459,50.60666,100.068056,47U,1903.12944,5,3, Bedding,74,113,23,-2.249, Middle Erkhelnuur,Wed Jun 12 19:05:26 2019,
3a42c2c0d0b5b66854bd2128a2d1ad6a,Locality 2,b026c992126d3d2921d5fd4d26c37ac8,575574.123048,5606629.251521,50.606655,100.068028,47U,1904.442673,5,3, Bedding,77,124,34,-2.249, Middle Erkhelnuur,Wed Jun 12 19:05:06 2019,
3a42c2c0d0b5b66854bd2128a2d1ad6a,Locality 2,989998383264505e35206b7a41b3ca10,575462.474065,5606541.80739,50.605883,100.066433,47U,1896.449265,5,3, Bedding,75,325,235,-2.249, Middle Erkhelnuur,Wed Jun 12 19:00:37 2019,
3a42c2c0d0b5b66854bd2128a2d1ad6a,Locality 2,eb46d1ac46bd2c799b0424491447fc68,575391.709253,5606375.79097,50.604399,100.065399,47U,1886.033737,5,4, Bedding,75,99,9,-2.249, Middle Erkhelnuur,Wed Jun 12 18:56:09 2019,
3a42c2c0d0b5b66854bd2128a2d1ad6a,Locality 2,eb0110da0ace3bccd9fbd9ff4dbf1bcb,575371.340333,5606322.721951,50.603925,100.065101,47U,1888.809616,5,4, Bedding,62,94,4,-2.249, Middle Erkhelnuur,Wed Jun 12 18:53:50 2019,
3a42c2c0d0b5b66854bd2128a2d1ad6a,Locality 2,6d5511c155f48098bc15503244010050,575440.570895,5606010.941671,50.601112,100.066015,47U,1878.231735,5,3, Bedding,55,83,353,-2.249, Middle Erkhelnuur,Wed Jun 12 18:40:41 2019,
3a42c2c0d0b5b66854bd2128a2d1ad6a,Locality 2,fa07d718110e58a5f84097f80436f09c,575434.158375,5605987.358113,50.600901,100.06592,47U,1875.346237,5,4, Bedding,66,135,45,-2.249, Middle Erkhelnuur,Wed Jun 12 18:39:31 2019,
3a42c2c0d0b5b66854bd2128a2d1ad6a,Locality 2,49a633e112b43e126d18a5015e03890f,575431.627095,5605919.537044,50.600292,100.06587,47U,1877.602585,5,6, Bedding,77,139,49,-2.249, Middle Erkhelnuur,Wed Jun 12 18:37:42 2019,
3a42c2c0d0b5b66854bd2128a2d1ad6a,Locality 2,e3c1ae4e072720998b2f4c0f4ed04a57,575446.732824,5605920.747028,50.600301,100.066084,47U,1876.675339,5,6, Bedding,61,135,45,-2.249, Middle Erkhelnuur,Wed Jun 12 18:36:46 2019,
3a42c2c0d0b5b66854bd2128a2d1ad6a,Locality 2,11eabc6263f10c5f24b350a965c880bb,575454.006721,5605910.014844,50.600203,100.066185,47U,1879.287643,5,4, Bedding,80,120,30,-2.249, Middle Erkhelnuur,Wed Jun 12 18:20:34 2019,
3a42c2c0d0b5b66854bd2128a2d1ad6a,Locality 2,97307cd1f039003994d76e7211f9a45f,575481.633708,5605895.781394,50.600072,100.066572,47U,1879.374802,5,4, Bedding,60,105,15,-2.249, Middle Erkhelnuur,Wed Jun 12 18:16:21 2019,
32d9644c702808ddf36e57b0d6394987,Locality 1,10f0583e35c9a9e34a6d89f1db04ee40,575492.35515,5605897.394535,50.600085,100.066724,47U,1878.017136,5,6, Bedding,57,94,4,-2.249, Middle Erkhelnuur,Wed Jun 12 18:13:34 2019,
32d9644c702808ddf36e57b0d6394987,Locality 1,dc3d7fa25cde343c39e2c99c7fbac7ed,575488.305573,5605839.889647,50.599568,100.066655,47U,1875.505096,5,4, Bedding,68,297,207,-2.249, Middle Erkhelnuur,Wed Jun 12 18:12:23 2019,
32d9644c702808ddf36e57b0d6394987,Locality 1,63a17fa4fc3ec4f838903314df64845c,575746.098139,5605681.99913,50.598115,100.070265,47U,1876.443573,5,4, Bedding,50,116,26,-2.249, Middle Erkhelnuur,Wed Jun 12 17:56:00 2019,
32d9644c702808ddf36e57b0d6394987,Locality 1,201ef29965724cba8957fdcff18b5b46,575738.111789,5605648.306094,50.597813,100.070145,47U,1875.420624,5,3, Bedding,52,109,19,-2.249, Middle Erkhelnuur,Wed Jun 12 17:55:08 2019,
32d9644c702808ddf36e57b0d6394987,Locality 1,fdf206809d633f496487a91f6931d0d5,575737.389305,5605604.226033,50.597417,100.070126,47U,1872.200409,5,3, Bedding,64,108,18,-2.249, Middle Erkhelnuur,Wed Jun 12 17:52:47 2019,
32d9644c702808ddf36e57b0d6394987,Locality 1,5fe0f504e4091531347bc12e3334fdbf,575729.472948,5605580.881419,50.597208,100.070009,47U,1871.804413,5,4, Bedding,59,107,17,-2.249, Middle Erkhelnuur,Wed Jun 12 17:52:14 2019,
32d9644c702808ddf36e57b0d6394987,Locality 1,87ba2d8b3b767e038f9b9d7a252abd6e,575744.497018,5605566.439465,50.597076,100.070219,47U,1877.080048,5,4, Bedding,66,97,7,-2.249, Middle Erkhelnuur,Wed Jun 12 17:51:30 2019,
32d9644c702808ddf36e57b0d6394987,Locality 1,676a93edcae65861fcee04090ef17cb8,575780.112288,5605532.532295,50.596767,100.070715,47U,1873.387909,5,6, Bedding,81,131,41,-2.249, Middle Erkhelnuur,Wed Jun 12 17:50:14 2019,
32d9644c702808ddf36e57b0d6394987,Locality 1,5f8441f085a224f9d40c5cc2c62e7516,575760.285907,5605529.029929,50.596738,100.070434,47U,1876.1008,5,6, Bedding,88,291,201,-2.249, Middle Erkhelnuur,Wed Jun 12 17:48:19 2019,
32d9644c702808ddf36e57b0d6394987,Locality 1,9489e21a8a06d66e264f12da01e39eaa,575776.52889,5605502.100233,50.596494,100.070658,47U,1881.400604,5,6, Bedding,80,291,201,-2.249, Middle Erkhelnuur,Wed Jun 12 17:46:16 2019,
32d9644c702808ddf36e57b0d6394987,Locality 1,e8e31c270e0f4260bb375187e8bb3ca9,575777.874859,5605420.808757,50.595762,100.07066,47U,1881.057343,5,6, Bedding,78,305,215,-2.249, Middle Erkhelnuur,Wed Jun 12 17:38:38 2019,
32d9644c702808ddf36e57b0d6394987,Locality 1,217a2472765a911461c4920efb722a77,575777.202438,5605403.273738,50.595605,100.070647,47U,1882.023163,5,4, Bedding,54,327,237,-2.249, Middle Erkhelnuur,Wed Jun 12 17:38:09 2019,
32d9644c702808ddf36e57b0d6394987,Locality 1,14f3082c299d47e534560667342087a2,575775.344882,5605400.832524,50.595583,100.070621,47U,1882.796112,5,4, Bedding,59,301,211,-2.249, Middle Erkhelnuur,Wed Jun 12 17:37:49 2019,
32d9644c702808ddf36e57b0d6394987,Locality 1,b733f3f310389bcc139984e1727fcf15,577639.007336,5605498.717279,50.596218,100.096967,47U,2085.384979,5,3, Bedding,68,125,35,-2.249, Middle Erkhelnuur,Tue Jun 11 21:00:25 2019,
32d9644c702808ddf36e57b0d6394987,Locality 1,a6bd07c77e33bfd3baab33fdeb0a359c,578050.964575,5605630.1592,50.597345,100.102814,47U,2186.943615,5,3, Bedding,78,124,34,-2.249, Middle Erkhelnuur,Tue Jun 11 20:48:56 2019,
32d9644c702808ddf36e57b0d6394987,Locality 1,1878938ece52ee2b149e3cf2c96200b7,578134.325004,5605635.207889,50.597379,100.103993,47U,2210.161144,5,3, Bedding,65,129,39,-2.249, Middle Erkhelnuur,Tue Jun 11 20:47:09 2019,
32d9644c702808ddf36e57b0d6394987,Locality 1,2bb945a1bed32442e071b3debad0578c,578175.088893,5605647.859173,50.597488,100.104572,47U,2236.53175,5,4, Bedding,68,138,48,-2.249, Middle Erkhelnuur,Tue Jun 11 20:45:22 2019,
32d9644c702808ddf36e57b0d6394987,Locality 1,fd4e232372c007359c35583057c5567a,578259.316723,5605632.521399,50.597339,100.105758,47U,2265.90675,5,3, Bedding,74,121,31,-2.249, Middle Erkhelnuur,Tue Jun 11 20:42:58 2019,
32d9644c702808ddf36e57b0d6394987,Locality 1,dd74c841526b928b5738092c8e2d0fa5,578337.632172,5605546.654346,50.596556,100.106846,47U,2291.58009,5,3, Bedding,64,93,3,-2.249, Middle Erkhelnuur,Tue Jun 11 20:40:11 2019,
32d9644c702808ddf36e57b0d6394987,Locality 1,2d320fadb8bc5b0af7114f4285c0a757,578362.633911,5605530.504254,50.596407,100.107196,47U,2298.288586,5,3, Bedding,68,90,0,-2.249, Middle Erkhelnuur,Tue Jun 11 20:39:03 2019,
32d9644c702808ddf36e57b0d6394987,Locality 1,ecc1c0ebab748276c144a31bb6b81130,578369.203743,5605512.531503,50.596245,100.107285,47U,2299.085949,5,3, Bedding,77,76,346,-2.249, Middle Erkhelnuur,Tue Jun 11 20:38:26 2019,
32d9644c702808ddf36e57b0d6394987,Locality 1,d5952d2fde4eb6020872c4295635c911,578480.29289,5605484.687346,50.59598,100.108849,47U,2317.974377,5,3, Bedding,59,70,340,-2.249, Middle Erkhelnuur,Tue Jun 11 20:34:21 2019,
32d9644c702808ddf36e57b0d6394987,Locality 1,ff181aa9600c6a718a8483e9081f6b4a,578479.703296,5605484.832343,50.595981,100.10884,47U,2318.813488,5,3, Bedding,65,138,48,-2.249, Middle Erkhelnuur,Tue Jun 11 20:33:11 2019,
32d9644c702808ddf36e57b0d6394987,Locality 1,ccf97c67af4733fbbb12f6b84116fc95,578610.297373,5605420.954442,50.595389,100.110672,47U,2312.876476,5,4, Bedding,58,96,6,-2.249, Middle Erkhelnuur,Tue Jun 11 20:29:36 2019,
32d9644c702808ddf36e57b0d6394987,Locality 1,bda63e9b4043fc6d6b687aed5b606d38,579394.272112,5606642.370142,50.606265,100.122007,47U,2336.391445,5,8, Bedding,68,97,7,-2.249, Middle Erkhelnuur,Tue Jun 11 19:46:35 2019,
32d9644c702808ddf36e57b0d6394987,Locality 1,49dc51a1f190e009eab20700405217c3,579374.022328,5606639.4162,50.606241,100.12172,47U,2317.890957,5,6, Bedding,75,127,37,-2.249, Middle Erkhelnuur,Tue Jun 11 19:40:02 2019,
32d9644c702808ddf36e57b0d6394987,Locality 1,621f56531f699565008bf8372c1f9997,579328.882829,5606642.974936,50.60628,100.121083,47U,2285.529873,10,8, Bedding,67,110,20,-2.249, Middle Erkhelnuur,Tue Jun 11 19:33:21 2019,
32d9644c702808ddf36e57b0d6394987,Locality 1,b4c53828903d733a9dbff5aad3a59d99,579230.068414,5606642.56752,50.606289,100.119687,47U,2229.650723,5,3, Bedding,64,112,22,-2.249, Middle Erkhelnuur,Tue Jun 11 19:11:24 2019,
32d9644c702808ddf36e57b0d6394987,Locality 1,70f7d0257ca46a43284b5ce34f81f429,579187.788966,5606567.104936,50.605617,100.119074,47U,2182.159756,5,6, Bedding,69,122,32,-2.249, Middle Erkhelnuur,Tue Jun 11 19:02:25 2019,
32d9644c702808ddf36e57b0d6394987,Locality 1,1b9b742dbf1ea2e66d61e6da280d1762,579136.595303,5606507.136809,50.605084,100.118338,47U,2159.158779,5,6, Bedding,72,126,36,-2.249, Middle Erkhelnuur,Tue Jun 11 18:57:17 2019,
32d9644c702808ddf36e57b0d6394987,Locality 1,cf5410007e59faba93816ef9e46d4de7,578979.21999,5606351.812231,50.603709,100.116081,47U,2074.175625,5,4, Bedding,64,107,17,-2.249, Middle Erkhelnuur,Tue Jun 11 18:36:50 2019,
32d9644c702808ddf36e57b0d6394987,Locality 1,8a48bae72f9ef064dbf83e55eb37ed0a,578886.928613,5606307.453273,50.603323,100.114768,47U,2052.134853,5,6, Bedding,70,119,29,-2.249, Middle Erkhelnuur,Tue Jun 11 18:31:18 2019,
32d9644c702808ddf36e57b0d6394987,Locality 1,8344e40b12731de48dd81c378edac90f,578829.833709,5606254.861936,50.602857,100.11395,47U,2039.504726,5,6, Bedding,65,112,22,-2.249, Middle Erkhelnuur,Tue Jun 11 18:15:18 2019,
32d9644c702808ddf36e57b0d6394987,Locality 1,c74fa092e0ee610bda4af8b3c8a20015,578729.283049,5606261.760565,50.602933,100.112531,47U,2036.455898,10,6, Bedding,57,124,34,-2.249, Middle Erkhelnuur,Tue Jun 11 18:10:07 2019,
32d9644c702808ddf36e57b0d6394987,Locality 1,e96375a2404720f124df043974868937,578711.243676,5606251.73895,50.602845,100.112274,47U,2029.810879,5,6, Bedding,69,115,25,-2.249, Middle Erkhelnuur,Tue Jun 11 18:07:36 2019,
32d9644c702808ddf36e57b0d6394987,Locality 1,7d3e37d959455af3bee74f25d397f222,578629.973004,5606282.886605,50.603136,100.111132,47U,2015.624599,5,4, Bedding,62,100,10,-2.249, Middle Erkhelnuur,Tue Jun 11 18:03:29 2019, Recrystallized but also evidence of bioturb
32d9644c702808ddf36e57b0d6394987,Locality 1,e61f76e0470b4efd852b924bcb331d7e,578408.948154,5606335.842055,50.603642,100.108021,47U,2002.373867,5,6, Bedding,69,123,33,-2.249, Middle Erkhelnuur,Tue Jun 11 17:55:07 2019,
32d9644c702808ddf36e57b0d6394987,Locality 1,f2928f1d4b99098d72b70bb2a0026fe0,578376.912434,5606343.75323,50.603718,100.10757,47U,1997.262051,5,6, Bedding,69,92,2,-2.249, Middle Erkhelnuur,Tue Jun 11 17:53:19 2019,
32d9644c702808ddf36e57b0d6394987,Locality 1,25393feef70e322287db7ddd24f2d0f4,578250.146167,5606322.153945,50.603541,100.105774,47U,1994.682461,5,4, Bedding,57,128,38,-2.249, Middle Erkhelnuur,Tue Jun 11 17:48:39 2019,
32d9644c702808ddf36e57b0d6394987,Locality 1,aca73d4b96b5dbac7c8205ee2794e1e4,578171.784694,5606265.836213,50.603045,100.104655,47U,1995.717129,5,12, Bedding,30,107,17,-2.249, Middle Erkhelnuur,Tue Jun 11 17:46:47 2019,
32d9644c702808ddf36e57b0d6394987,Locality 1,b054b5ca7846a04e320372562e0001eb,577990.925164,5606255.957072,50.60298,100.102098,47U,1977.400234,5,6, Bedding,65,142,52,-2.249, Middle Erkhelnuur,Tue Jun 11 17:36:28 2019,
32d9644c702808ddf36e57b0d6394987,Locality 1,55321130d5503d84794ccfa93687723b,577851.667148,5606231.161466,50.602776,100.100125,47U,1964.230312,10,6, Bedding,51,140,50,-2.249, Middle Erkhelnuur,Tue Jun 11 17:32:34 2019,
32d9644c702808ddf36e57b0d6394987,Locality 1,45ccfd5cb38dde233f22d4b15d2c6b45,579482.903026,5606408.887359,50.604154,100.123209,47U,2314.328457,5,3, Bedding,83,128,38,-2.249, Middle Erkhelnuur,Mon Jun 10 21:48:05 2019,
32d9644c702808ddf36e57b0d6394987,Locality 1,177e508dcbd0782dbc2da7aa0c5dc5b0,579460.621866,5606633.97341,50.606181,100.122943,47U,2372.460537,5,3, Bedding,78,112,22,-2.249, Middle Erkhelnuur,Mon Jun 10 21:43:20 2019,
32d9644c702808ddf36e57b0d6394987,Locality 1,3f96e949eea27a8b8e5068e03e30a137,579441.894192,5606776.896666,50.607468,100.122709,47U,2398.562832,5,4, Bedding,70,98,8,-2.249, Middle Erkhelnuur,Mon Jun 10 21:40:49 2019,
32d9644c702808ddf36e57b0d6394987,Locality 1,58f0c0d5b8386d570cdb149eac64259a,579394.518266,5606876.546314,50.608371,100.122061,47U,2422.814785,5,6, Bedding,56,108,18,-2.249, Middle Erkhelnuur,Mon Jun 10 21:38:07 2019,
32d9644c702808ddf36e57b0d6394987,Locality 1,dc1ef4335893fd3073a2a922ae243c33,579352.095401,5606953.184984,50.609066,100.121478,47U,2432.721523,5,4, Bedding,52,89,359,-2.249, Middle Erkhelnuur,Mon Jun 10 21:35:05 2019,
32d9644c702808ddf36e57b0d6394987,Locality 1,1ba98ade33d9c42f53b9d70d4dd51ca7,579274.110374,5607079.388248,50.610211,100.120403,47U,2415.627041,5,3, Bedding,71,112,22,-2.249, Middle Erkhelnuur,Mon Jun 10 21:16:55 2019,
32d9644c702808ddf36e57b0d6394987,Locality 1,08dcb9e0263d859e5b557d6625ceceea,579219.631702,5607153.664333,50.610886,100.119649,47U,2395.261074,5,3, Bedding,58,80,350,-2.249, Middle Erkhelnuur,Mon Jun 10 21:11:52 2019,
32d9644c702808ddf36e57b0d6394987,Locality 1,bc973449879a7cb36d182472968ca06b,579125.463449,5607335.823833,50.612537,100.118357,47U,2358.492275,5,4, Bedding,55,95,5,-2.249, Middle Erkhelnuur,Mon Jun 10 21:03:02 2019, Bioturb
32d9644c702808ddf36e57b0d6394987,Locality 1,7a1060a5ec18d497f16fda9efb186b55,579126.142188,5607337.227735,50.612549,100.118367,47U,2357.035976,5,4, Bedding,60,99,9,-2.249, Middle Erkhelnuur,Mon Jun 10 21:02:48 2019,
32d9644c702808ddf36e57b0d6394987,Locality 1,27fa3a8b6a9c7a0ad28114decdd8cc28,579100.517659,5607386.407039,50.612995,100.118015,47U,2366.278652,5,3, Bedding,68,79,349,-2.249, Lower erkhelnuur,Mon Jun 10 21:00:59 2019,
32d9644c702808ddf36e57b0d6394987,Locality 1,d2d5d90a90c9a37e8fd6ef7d26e4c5d3,578892.152253,5607544.835044,50.614448,100.115104,47U,2395.82748,5,4, Bedding,72,81,351,-2.249, Lower erkhelnuur,Mon Jun 10 20:33:34 2019,
32d9644c702808ddf36e57b0d6394987,Locality 1,54c0a094f5bb0b32cc2577006e1dbcdd,578448.935245,5607493.076214,50.614042,100.10883,47U,2340.236172,5,3, Bedding,72,106,16,-2.249, Middle Erkhelnuur,Mon Jun 10 20:20:11 2019, Plenty of bioturb  plane parallel foliation
32d9644c702808ddf36e57b0d6394987,Locality 1,e2d6e3b6d4f3cc0bf39900b256d9c992,578448.835862,5607489.807324,50.614013,100.108828,47U,2340.288906,5,3, Bedding,65,98,8,-2.249, Middle Erkhelnuur,Mon Jun 10 20:19:20 2019,
32d9644c702808ddf36e57b0d6394987,Locality 1,2cab713a8b89cf7eb9c131f4ed7295d4,577371.493666,5607155.215256,50.611148,100.093534,47U,2342.320114,5,3, Bedding,51,100,10,-2.249, Middle Erkhelnuur,Mon Jun 10 19:37:51 2019,
32d9644c702808ddf36e57b0d6394987,Locality 1,e718d554d56ddec59c06a4af1822d7c5,576702.7254,5606925.620311,50.609172,100.084036,47U,2240.089645,5,3, Bedding,65,74,344,-2.249, Middle Erkhelnuur,Mon Jun 10 19:11:43 2019,
32d9644c702808ddf36e57b0d6394987,Locality 1,b089e00eab191b66f9a1ce1c2fbc8a60,576579.133092,5606912.320317,50.609069,100.082287,47U,2207.58696,5,3, Bedding,70,87,357,-2.249, Middle Erkhelnuur,Mon Jun 10 19:03:54 2019,
32d9644c702808ddf36e57b0d6394987,Locality 1,72270ab8ac5e4212d458095c8287fb39,576504.352402,5606891.396429,50.60889,100.081226,47U,2182.800339,5,3, Bedding,66,83,353,-2.249, Middle Erkhelnuur,Mon Jun 10 18:55:55 2019,
32d9644c702808ddf36e57b0d6394987,Locality 1,2c399d7a06d8f06ddcad81dd88007170,576419.323814,5606704.140636,50.607218,100.079986,47U,2162.193893,5,3, Bedding,57,62,332,-2.249, Middle Erkhelnuur,Mon Jun 10 18:39:37 2019, Near lots of brittle def and local bedding parallel foliation
32d9644c702808ddf36e57b0d6394987,Locality 1,68f81472496f1ecc4e4441d4b5e617b1,576358.925479,5606571.932494,50.606037,100.079105,47U,2163.198044,5,4, Bedding,54,86,356,-2.249, Middle Erkhelnuur,Mon Jun 10 18:35:46 2019,
32d9644c702808ddf36e57b0d6394987,Locality 1,89964c34faeb657289b6e4bd70774c5c,576343.256167,5606548.441339,50.605828,100.078879,47U,2169.35405,5,3, Bedding,58,87,357,-2.249, Middle Erkhelnuur,Mon Jun 10 18:34:02 2019,
32d9644c702808ddf36e57b0d6394987,Locality 1,6e056e7e40627c62aeaba33f3e72cd93,576320.099013,5606379.455195,50.604311,100.078517,47U,2136.35527,5,6, Bedding,56,94,4,-2.249, Middle Erkhelnuur,Mon Jun 10 18:23:55 2019,
32d9644c702808ddf36e57b0d6394987,Locality 1,841b9ed2e1f89621e58c6d2b27097a4c,576338.75401,5605962.538793,50.60056,100.078695,47U,2130.277634,5,4, Bedding,71,120,30,-2.249, Middle Erkhelnuur,Mon Jun 10 18:11:57 2019,
32d9644c702808ddf36e57b0d6394987,Locality 1,72bbee13ee92480d102cada3eed6848c,576319.893063,5605765.943024,50.598795,100.078388,47U,2114.574188,5,3, Bedding,73,90,0,-2.249, Middle Erkhelnuur,Mon Jun 10 18:06:16 2019,
32d9644c702808ddf36e57b0d6394987,Locality 1,91bcfc172375bb69f2a849e6f084d252,576177.041934,5605461.736692,50.596078,100.076307,47U,2072.004852,10,4, Bedding,56,99,9,-2.249, Middle Erkhelnuur,Mon Jun 10 17:58:04 2019,
32d9644c702808ddf36e57b0d6394987,Locality 1,dd5607c585935d24bb98a6e7a6cdd1a2,576093.259952,5605320.616752,50.59482,100.075095,47U,2029.500702,5,3, Bedding,53,89,359,-2.249, Middle Erkhelnuur,Mon Jun 10 17:53:07 2019,
32d9644c702808ddf36e57b0d6394987,Locality 1,2392297c6d3dbbba0daec4d948de58d6,576074.689059,5605187.891447,50.59363,100.074806,47U,1990.863251,30,6, Bedding,49,76,346,-2.249, Middle Erkhelnuur,Mon Jun 10 17:48:47 2019,
32d9644c702808ddf36e57b0d6394987,Locality 1,8e400e170c9c8132025c3d0e99154a65,576107.83253,5605184.405496,50.593594,100.075273,47U,1986.468964,5,6, Bedding,52,111,21,-2.249, Middle Erkhelnuur,Mon Jun 10 17:45:28 2019,
