localityId,localityName,dataId,x,y,latitude,longitude,zone,altitude,horiz_precision,vert_precision,planeType,dip,dipAzimuth,strike,declination,rockUnit,timedate,notes
6e87573a7b38a6f7f29f7fac315c8c3c,Locality 7,020d671da4d35a90feaea71a45317d9f,559026.239786,5667621.665716,51.15699,99.844052,47U,1721.897106,10,16, Bedding,38,223,133,-2.249, Middle Erkhelnuur,Mon Jul 15 02:05:28 2019,
6e87573a7b38a6f7f29f7fac315c8c3c,Locality 7,f8fdb30c081b41beaf8d959ed13b0972,559027.483785,5667608.279246,51.15687,99.844068,47U,1710.505993,5,6, Bedding,48,214,124,-2.249, Middle Erkhelnuur,Mon Jul 15 02:03:07 2019,
6e87573a7b38a6f7f29f7fac315c8c3c,Locality 7,ad26b09e490c908a4560ceac98f4c933,561862.865119,5665311.846,51.135922,99.884213,47U,1730.999355,30,12, Bedding,53,211,121,-2.249, Middle Erkhelnuur,Mon Jul 15 01:01:13 2019,
6e87573a7b38a6f7f29f7fac315c8c3c,Locality 7,a46c84b5e9b450d7ea2c2819c2531e07,563473.371722,5664553.159298,51.128925,99.907095,47U,1713.185879,5,6, Bedding,69,188,98,-2.249, Middle Erkhelnuur,Mon Jul 15 00:41:45 2019,
6e87573a7b38a6f7f29f7fac315c8c3c,Locality 7,fe62d98213ffc57d05015c668be0c70b,563485.225882,5664557.043708,51.128958,99.907265,47U,1717.092129,5,6, Bedding,62,166,76,-2.249, Middle Erkhelnuur,Mon Jul 15 00:41:21 2019,
6e87573a7b38a6f7f29f7fac315c8c3c,Locality 7,906147eeb4c62699a7d0ab4af3f42723,563602.484921,5664588.129976,51.129225,99.908946,47U,1717.175137,0,0, Bedding,56,204,114,-2.249, Middle Erkhelnuur,Mon Jul 15 00:37:29 2019,
6e87573a7b38a6f7f29f7fac315c8c3c,Locality 7,ac83f9d6c1c9900a64ea1c0b4f13784e,564132.928887,5664487.38671,51.12826,99.916508,47U,1724.241543,5,3, Bedding,70,269,179,-2.249, Middle Erkhelnuur,Mon Jul 15 00:16:21 2019,
6e87573a7b38a6f7f29f7fac315c8c3c,Locality 7,2cb5d054411c56a7dd3439f512211787,564133.496611,5664491.728694,51.128299,99.916517,47U,1722.599697,5,3, Bedding,70,261,171,-2.249, Middle Erkhelnuur,Mon Jul 15 00:16:15 2019,
6e87573a7b38a6f7f29f7fac315c8c3c,Locality 7,0b03d49faef08d86369cc6a0c1246cbe,564107.11936,5664494.360092,51.128325,99.91614,47U,1707.691494,10,16, Bedding,68,250,160,-2.249, Middle Erkhelnuur,Mon Jul 15 00:14:20 2019,
6e87573a7b38a6f7f29f7fac315c8c3c,Locality 7,8c0bca9ae0245dddfb2a8488fb62a2e8,564087.498899,5664484.341331,51.128238,99.915858,47U,1719.666348,5,4, Bedding,70,230,140,-2.249, Middle Erkhelnuur,Mon Jul 15 00:13:29 2019,
6e87573a7b38a6f7f29f7fac315c8c3c,Locality 7,c001d2e5f1aa50421ddaa0fb56ef3aaa,564096.475735,5664484.672141,51.128239,99.915986,47U,1721.039883,5,3, Bedding,70,257,167,-2.249, Middle Erkhelnuur,Mon Jul 15 00:13:12 2019,
6e87573a7b38a6f7f29f7fac315c8c3c,Locality 7,43c187d9376b01ce106fe7cc542bb5dd,563941.412609,5664498.331315,51.12838,99.913773,47U,1720.499355,5,3, Bedding,62,223,133,-2.249, Middle Erkhelnuur,Mon Jul 15 00:08:37 2019,
6e87573a7b38a6f7f29f7fac315c8c3c,Locality 7,f53c36bc2f08b170e96b10386de03ef5,563938.896323,5664496.421608,51.128363,99.913737,47U,1721.045742,5,4, Bedding,67,205,115,-2.249, Middle Erkhelnuur,Mon Jul 15 00:07:30 2019, No obv bioturb  could be lower erkh. Dark limestone looks like middle transition though
6e87573a7b38a6f7f29f7fac315c8c3c,Locality 7,3cb9aac914dab8b57ae5d201b1605b02,563897.040711,5664509.599645,51.128486,99.913141,47U,1722.765957,0,0, Bedding,64,224,134,-2.249, Middle Erkhelnuur,Mon Jul 15 00:06:34 2019, Swiss
6e87573a7b38a6f7f29f7fac315c8c3c,Locality 7,ecdc8ce855d1c26cfc23369acf5eb2ad,563855.603129,5664503.610354,51.128437,99.912548,47U,1723.205898,5,3, Bedding,60,177,87,-2.249, Middle Erkhelnuur,Mon Jul 15 00:03:43 2019, Possible bedding
6e87573a7b38a6f7f29f7fac315c8c3c,Locality 7,da03116c8d0efc8baaf42f3e04859310,563816.897924,5664502.277516,51.128429,99.911995,47U,1726.60873,5,3, Bedding,56,282,192,-2.249, Middle Erkhelnuur,Mon Jul 15 00:00:48 2019,
6e87573a7b38a6f7f29f7fac315c8c3c,Locality 7,2636b1caedbbc5f634aff3eea8a69c27,565015.543752,5664214.359013,51.125705,99.92907,47U,1819.790859,5,4, Bedding,64,228,138,-2.249, Lower erkhelnuur,Sun Jul 14 23:40:09 2019,
6e87573a7b38a6f7f29f7fac315c8c3c,Locality 7,cb54d92206942e843da9ef438a09e4ad,565015.762793,5664213.737176,51.1257,99.929073,47U,1817.461269,5,4, Bedding,50,256,166,-2.249, Lower erkhelnuur,Sun Jul 14 23:39:49 2019,
6e87573a7b38a6f7f29f7fac315c8c3c,Locality 7,b000692241805f9d345497a99c22bf9e,565015.409364,5664210.134259,51.125668,99.929067,47U,1818.113613,5,4, Bedding,47,322,232,-2.249, Lower erkhelnuur,Sun Jul 14 23:39:30 2019,
6e87573a7b38a6f7f29f7fac315c8c3c,Locality 7,8c631d02baee98ca08c33ac5b3bb2df7,565016.208689,5664222.561816,51.125779,99.929081,47U,1820.579922,5,3, Bedding,71,7,277,-2.249, Lower erkhelnuur,Sun Jul 14 23:37:08 2019,
6e87573a7b38a6f7f29f7fac315c8c3c,Locality 7,46c101d24f2d7bda03f8fa3c2c88f2db,565122.188267,5664243.203014,51.125953,99.930599,47U,1874.101406,5,3, Bedding,42,342,252,-2.249, Middle Erkhelnuur,Sun Jul 14 23:26:57 2019,   Limb (shorter on parasitic asymmetrical fold
6e87573a7b38a6f7f29f7fac315c8c3c,Locality 7,f090aea2625e254bf2d82ec67f851706,565121.620324,5664244.044173,51.12596,99.930591,47U,1872.980556,5,4, Bedding,89,46,316,-2.249, Middle Erkhelnuur,Sun Jul 14 23:26:10 2019, S limb(longer) on parasitic asymmetrical fold
6e87573a7b38a6f7f29f7fac315c8c3c,Locality 7,3128adff660ec95808363ac198277df8,565119.14331,5664244.618807,51.125966,99.930556,47U,1872.269863,5,4, Bedding,63,234,144,-2.249, Middle Erkhelnuur,Sun Jul 14 23:24:35 2019,
6e87573a7b38a6f7f29f7fac315c8c3c,Locality 7,f2614fece49467038e04b10fa6977c1e,565119.364754,5664245.199598,51.125971,99.930559,47U,1872.772793,5,4, Bedding,63,225,135,-2.249, Middle Erkhelnuur,Sun Jul 14 23:24:22 2019,
6e87573a7b38a6f7f29f7fac315c8c3c,Locality 7,959c9437e802ad600963e6552a27d6bf,565120.072621,5664246.746749,51.125985,99.930569,47U,1877.265957,5,4, Bedding,85,230,140,-2.249, Middle Erkhelnuur,Sun Jul 14 23:24:13 2019,
6e87573a7b38a6f7f29f7fac315c8c3c,Locality 7,dcaa8e0775da8d8951b66425a2815eab,565120.072621,5664246.746749,51.125985,99.930569,47U,1877.265957,5,4, Bedding,88,208,118,-2.249, Middle Erkhelnuur,Sun Jul 14 23:24:07 2019,
6e87573a7b38a6f7f29f7fac315c8c3c,Locality 7,d1803c64aa3c2d97ea185d0ad311a8b4,565120.072621,5664246.746749,51.125985,99.930569,47U,1877.265957,5,4, Bedding,88,231,141,-2.249, Middle Erkhelnuur,Sun Jul 14 23:24:02 2019,
6e87573a7b38a6f7f29f7fac315c8c3c,Locality 7,f33bc551de671d21873a44afbcc583f9,565142.254156,5664251.324934,51.126023,99.930887,47U,1878.559414,5,4, Bedding,52,278,188,-2.249, Middle Erkhelnuur,Sun Jul 14 23:20:34 2019,
6e87573a7b38a6f7f29f7fac315c8c3c,Locality 7,21de04e542c83e3588f6fa8faef02bcb,565147.424554,5664251.157281,51.126021,99.930961,47U,1889.554531,5,8, Bedding,63,247,157,-2.249, Middle Erkhelnuur,Sun Jul 14 23:20:21 2019,
6e87573a7b38a6f7f29f7fac315c8c3c,Locality 7,b83814fa9273b7cf71f00b8df7f110f7,565128.581654,5664270.03954,51.126193,99.930695,47U,1883.685879,0,0, Bedding,85,233,143,-2.249, Middle Erkhelnuur,Sun Jul 14 23:19:59 2019,
6e87573a7b38a6f7f29f7fac315c8c3c,Locality 7,278d13bb129ab44704e6be5d68a4a91c,565174.05983,5664249.119894,51.126,99.931341,47U,1884.548428,0,0, Bedding,56,262,172,-2.249, Middle Erkhelnuur,Sun Jul 14 23:16:37 2019,
6e87573a7b38a6f7f29f7fac315c8c3c,Locality 7,1423fadee5b0debffe02f732748ca618,565172.257413,5664253.899992,51.126043,99.931316,47U,1877.374599,10,6, Bedding,84,229,139,-2.249, Middle Erkhelnuur,Sun Jul 14 23:15:10 2019, Heavy bioturb
6e87573a7b38a6f7f29f7fac315c8c3c,Locality 7,c90a8d0cf74283e0f04b43bda5aa25fc,565226.135848,5664257.617405,51.12607,99.932087,47U,1887.395351,5,4, Bedding,76,208,118,-2.249, Middle Erkhelnuur,Sun Jul 14 23:13:28 2019, Dark ls gs occ b  poss overturned
6e87573a7b38a6f7f29f7fac315c8c3c,Locality 7,2868c11bd3855143691c386390ba9830,565273.667977,5664221.619001,51.125741,99.932759,47U,1883.130703,5,4, Bedding,87,33,303,-2.249, Middle Erkhelnuur,Sun Jul 14 23:10:58 2019, Spaghetti bioturb
6e87573a7b38a6f7f29f7fac315c8c3c,Locality 7,3303e43fb81cd8f9b7e5de666b7ff40d,565307.103028,5664209.406352,51.125628,99.933235,47U,1873.911465,5,4, Bedding,88,17,287,-2.249, Middle Erkhelnuur,Sun Jul 14 23:07:58 2019, Light b
6e87573a7b38a6f7f29f7fac315c8c3c,Locality 7,63e584cd2c7c91c82848088b48f60883,565323.376863,5664197.353759,51.125518,99.933465,47U,1872.354336,5,4, Bedding,79,19,289,-2.249, Middle Erkhelnuur,Sun Jul 14 23:07:06 2019,
6e87573a7b38a6f7f29f7fac315c8c3c,Locality 7,46d59e82cc5c3c721e31333a40457f9e,565332.918011,5664199.48378,51.125536,99.933602,47U,1874.922939,5,4, Bedding,89,191,101,-2.249, Middle Erkhelnuur,Sun Jul 14 23:06:47 2019,
6e87573a7b38a6f7f29f7fac315c8c3c,Locality 7,c0ad6359c0bffde076c26cd278028061,565347.296303,5664197.200429,51.125513,99.933807,47U,1877.838223,5,4, Bedding,66,25,295,-2.249, Middle Erkhelnuur,Sun Jul 14 23:06:15 2019,
6e87573a7b38a6f7f29f7fac315c8c3c,Locality 7,405c2dad67208443bcda29c35430b4d3,565358.549981,5664196.131329,51.125503,99.933967,47U,1878.258389,5,4, Bedding,54,24,294,-2.249, Middle Erkhelnuur,Sun Jul 14 23:05:57 2019,
6e87573a7b38a6f7f29f7fac315c8c3c,Locality 7,1fc0c1d288d405d2e751757a4c3f86eb,565360.707471,5664195.776492,51.125499,99.933998,47U,1878.215176,5,4, Bedding,77,27,297,-2.249, Lower erkhelnuur,Sun Jul 14 23:05:48 2019, Dark grey ls gs  no B. Possible lower erkh?
6e87573a7b38a6f7f29f7fac315c8c3c,Locality 7,b2e278f471309179add5231833c2a6ab,565550.230744,5664144.944966,51.12502,99.936697,47U,1851.678066,5,3, Bedding,71,2,272,-2.249, Middle Erkhelnuur,Sun Jul 14 22:59:21 2019,
6e87573a7b38a6f7f29f7fac315c8c3c,Locality 7,1dcc9f593176ea84ac4df3cefcb50d84,565550.962701,5664144.590708,51.125017,99.936707,47U,1851.184902,5,3, Bedding,83,11,281,-2.249, Middle Erkhelnuur,Sun Jul 14 22:59:09 2019,
6e87573a7b38a6f7f29f7fac315c8c3c,Locality 7,42237545921656f37c2cd0da58a13973,565551.677729,5664143.262039,51.125005,99.936717,47U,1851.948574,5,4, Bedding,71,275,185,-2.249, Middle Erkhelnuur,Sun Jul 14 22:58:59 2019,
6e87573a7b38a6f7f29f7fac315c8c3c,Locality 7,00068282b685e81919ac8c26de2ff26e,565553.106086,5664143.042499,51.125003,99.936738,47U,1849.11581,5,3, Bedding,53,293,203,-2.249, Middle Erkhelnuur,Sun Jul 14 22:58:47 2019,
6e87573a7b38a6f7f29f7fac315c8c3c,Locality 7,689c822ab92f9d1f4b1f833ff29ee935,565581.30373,5664116.995695,51.124766,99.937136,47U,1850.994473,5,3, Bedding,64,347,257,-2.249, Middle Erkhelnuur,Sun Jul 14 22:54:47 2019,Ex heavy bioturb  2-3cm
6e87573a7b38a6f7f29f7fac315c8c3c,Locality 7,368a62b384a84622425f355daae06780,565582.07513,5664117.690718,51.124772,99.937147,47U,1849.851894,5,4, Bedding,73,358,268,-2.249, Middle Erkhelnuur,Sun Jul 14 22:54:18 2019,
6e87573a7b38a6f7f29f7fac315c8c3c,Locality 7,625a05a8dd94e573553137e1418d44c1,565589.259865,5664113.685006,51.124735,99.937249,47U,1848.249355,5,4, Bedding,77,355,265,-2.249, Middle Erkhelnuur,Sun Jul 14 22:52:08 2019,
6e87573a7b38a6f7f29f7fac315c8c3c,Locality 7,66a37a2134bc8f75833ce9216ba04469,565591.253532,5664110.536106,51.124706,99.937277,47U,1847.161953,5,4, Bedding,78,13,283,-2.249, Middle Erkhelnuur,Sun Jul 14 22:51:52 2019,
6e87573a7b38a6f7f29f7fac315c8c3c,Locality 7,b62d4a5fb8226f62ac235aa5e33f092a,565592.539044,5664108.175257,51.124685,99.937295,47U,1846.644863,5,3, Bedding,73,2,272,-2.249, Middle Erkhelnuur,Sun Jul 14 22:51:41 2019, Def bioturb
6e87573a7b38a6f7f29f7fac315c8c3c,Locality 7,4ae7841010c567f9f7778ae0060161b7,565599.389614,5664100.468954,51.124615,99.937391,47U,1845.87875,5,4, Bedding,75,322,232,-2.249, Middle Erkhelnuur,Sun Jul 14 22:50:32 2019,
6e87573a7b38a6f7f29f7fac315c8c3c,Locality 7,15a95dad56e65c143cd49ef9b53dbda7,565606.519435,5664097.553291,51.124588,99.937492,47U,1845.964199,5,3, Bedding,52,294,204,-2.249, Middle Erkhelnuur,Sun Jul 14 22:50:07 2019,
6e87573a7b38a6f7f29f7fac315c8c3c,Locality 7,29cb65fc365335717b11f2fafc584ca2,565612.12461,5664092.744403,51.124544,99.937572,47U,1844.793301,5,3, Bedding,48,320,230,-2.249, Middle Erkhelnuur,Sun Jul 14 22:49:35 2019,Ark ls gs  infrequent bioturb 1-2 cm dt
6e87573a7b38a6f7f29f7fac315c8c3c,Locality 7,a3eb8beba81563aa1a5e1fe2c66b61ba,565614.64841,5664091.270983,51.12453,99.937607,47U,1843.375088,5,3, Bedding,47,338,248,-2.249, Middle Erkhelnuur,Sun Jul 14 22:48:33 2019,
6e87573a7b38a6f7f29f7fac315c8c3c,Locality 7,82eb10bac9f20dbfbab47a086e108386,565630.38462,5664082.363475,51.124449,99.937831,47U,1844.487637,10,4, Bedding,42,309,219,-2.249, Middle Erkhelnuur,Sun Jul 14 22:47:21 2019,
6e87573a7b38a6f7f29f7fac315c8c3c,Locality 7,abe6f7590645cf61e6ead2eb7e6f9540,565608.26704,5664043.724471,51.124104,99.937508,47U,1819.491299,5,3, Bedding,59,352,262,-2.249, Middle Erkhelnuur,Sun Jul 14 22:44:21 2019,
6e87573a7b38a6f7f29f7fac315c8c3c,Locality 7,3bc3f41fd01d25e62ed3bc42cf3a2256,565602.494701,5664040.467324,51.124075,99.937425,47U,1811.933926,5,6, Bedding,65,347,257,-2.249, Lower erkhelnuur,Sun Jul 14 22:41:48 2019,
6e87573a7b38a6f7f29f7fac315c8c3c,Locality 7,e273a1d2965691112279151b52c1dd44,565588.87497,5664025.983902,51.123946,99.937227,47U,1804.551113,5,3, Bedding,64,8,278,-2.249, Lower erkhelnuur,Sun Jul 14 22:40:05 2019, Ls gs  occ si  coarse gs
6e87573a7b38a6f7f29f7fac315c8c3c,Locality 7,3f58fdcc94b6324e95a2ca842d8257c8,568353.515851,5662990.636107,51.114314,99.97653,47U,1861.597256,5,3, Bedding,53,264,174,-2.249, Lower erkhelnuur,Sun Jul 14 20:35:15 2019,
6e87573a7b38a6f7f29f7fac315c8c3c,Locality 7,a52b584199610f43a0ba8560f5ebc1a2,568344.161672,5663010.149916,51.114491,99.9764,47U,1869.838955,5,4, Bedding,73,288,198,-2.249, Lower erkhelnuur,Sun Jul 14 20:34:04 2019,
6e87573a7b38a6f7f29f7fac315c8c3c,Locality 7,d2ad5ff03a40b9baa0a9d9149e7e5de9,568361.112506,5663034.147278,51.114705,99.976647,47U,1882.555508,5,3, Bedding,57,283,193,-2.249, Lower erkhelnuur,Sun Jul 14 20:33:03 2019,
6e87573a7b38a6f7f29f7fac315c8c3c,Locality 7,b0844a2ef825b47cb555757a86bd9201,568434.532798,5663129.904295,51.115557,99.977714,47U,1929.434414,5,6, Bedding,68,247,157,-2.249, Lower erkhelnuur,Sun Jul 14 20:29:07 2019,
6e87573a7b38a6f7f29f7fac315c8c3c,Locality 7,d32c3b6022d19f12b3acbae9d6020cbd,568444.245168,5663140.413973,51.11565,99.977855,47U,1953.999844,5,4, Bedding,55,256,166,-2.249, Lower erkhelnuur,Sun Jul 14 20:28:31 2019,
6e87573a7b38a6f7f29f7fac315c8c3c,Locality 7,e95bdcfbfead27b5dbac312fb7a142bd,568456.982927,5663219.097647,51.116356,99.978051,47U,1964.246426,5,3, Bedding,65,248,158,-2.249, Lower erkhelnuur,Sun Jul 14 20:23:28 2019,
6e87573a7b38a6f7f29f7fac315c8c3c,Locality 7,fb89b89ccf1bef75e5412e9d6e55e4c3,568457.609234,5663201.551629,51.116198,99.978057,47U,1959.320156,5,3, Bedding,50,268,178,-2.249, Lower erkhelnuur,Sun Jul 14 20:22:32 2019,
6e87573a7b38a6f7f29f7fac315c8c3c,Locality 7,cd6eda0abef9abd38ad67ba10dd60ead,568463.297645,5663186.785744,51.116065,99.978136,47U,1958.590908,5,3, Bedding,63,274,184,-2.249, Lower erkhelnuur,Sun Jul 14 20:21:46 2019,
6e87573a7b38a6f7f29f7fac315c8c3c,Locality 7,e3bf25275393c95b3ca3d720a172971b,568456.780211,5663171.652553,51.11593,99.97804,47U,1951.314785,5,3, Bedding,55,281,191,-2.249, Lower erkhelnuur,Sun Jul 14 20:21:10 2019,Light dL ry5mite. Likely lower erkh
6e87573a7b38a6f7f29f7fac315c8c3c,Locality 7,6f57f54d14a044fb0a04a444d592b2e3,568458.664675,5663158.337043,51.11581,99.978064,47U,1949.743008,5,3, Bedding,44,319,229,-2.249, Lower erkhelnuur,Sun Jul 14 20:19:08 2019,
6e87573a7b38a6f7f29f7fac315c8c3c,Locality 7,9095e8009dac1672d632c6e1d411509f,568514.139164,5662889.578609,51.113387,99.978805,47U,1839.859219,5,3, Bedding,67,286,196,-2.249, Upper khesen,Sun Jul 14 20:07:53 2019, Sketchy bc lots of brecc  but general trends in subcrop look to be oriented about here. Poss khesen  poss just above.
6e87573a7b38a6f7f29f7fac315c8c3c,Locality 7,0627e6ee089f390d3dadca56eebe0bb6,559750.791755,5664286.486584,51.126927,99.853858,47U,1828.731445,10,12, Bedding,49,231,141,-2.249, Middle Erkhelnuur,Wed Jul 10 19:45:34 2019,
6e87573a7b38a6f7f29f7fac315c8c3c,Locality 7,98e02ad188ed2848464ed96c3b11db6c,563246.295756,5668506.162958,51.164492,99.904545,47U,2367.979248,5,12, Bedding,55,214,124,-2.249, Unidentified carbonate,Wed Jul 10 01:46:37 2019, Ls dL gs with occ silicified layers. Poss Borgio equiv?
6e87573a7b38a6f7f29f7fac315c8c3c,Locality 7,15838670c9d7b9b86dd6d7c0561503c8,563285.735707,5668518.217287,51.164596,99.905111,47U,2359.666992,5,8, Bedding,76,260,170,-2.249, Unidentified carbonate,Wed Jul 10 01:44:40 2019,
6e87573a7b38a6f7f29f7fac315c8c3c,Locality 7,d2c6f733012101d2bc2ee2297afad296,563363.240605,5668534.474424,51.164733,99.906222,47U,2364.090088,5,4, Bedding,59,277,187,-2.249, Salkhitai,Wed Jul 10 00:48:19 2019,
6e87573a7b38a6f7f29f7fac315c8c3c,Locality 7,c8038a89a3aa93fbb3e920078fc82500,563364.768662,5668535.569992,51.164743,99.906244,47U,2364.589844,5,3, Bedding,63,280,190,-2.249, Salkhitai,Wed Jul 10 00:47:04 2019,
6e87573a7b38a6f7f29f7fac315c8c3c,Locality 7,a03f8c393fc14777204bd8c358de2ec8,563726.158471,5668724.52203,51.166402,99.911446,47U,2408.080566,5,3, Bedding,19,274,184,-2.249, Unidentified carbonate,Wed Jul 10 00:12:57 2019,
6e87573a7b38a6f7f29f7fac315c8c3c,Locality 7,3846a185a0f897cecf86b9566294af51,564187.087189,5669250.741853,51.171082,99.918131,47U,2346.815186,5,3, Bedding,69,140,50,-2.249, Unidentified carbonate,Tue Jul  9 23:37:35 2019,
6e87573a7b38a6f7f29f7fac315c8c3c,Locality 7,eb04e5252a8f304cde71d4a563f27513,564162.424857,5669237.182134,51.170962,99.917776,47U,2346.210693,5,8, Bedding,68,310,220,-2.249, Unidentified carbonate,Tue Jul  9 23:31:13 2019,
6e87573a7b38a6f7f29f7fac315c8c3c,Locality 7,ea8b84bde0d73a989299d44129a76b07,564164.567432,5669233.619724,51.17093,99.917806,47U,2330.708496,5,6, Bedding,62,335,245,-2.249, Unidentified carbonate,Tue Jul  9 23:30:30 2019,
6e87573a7b38a6f7f29f7fac315c8c3c,Locality 7,4595b281c01943e4359af0f5d623964c,564231.080495,5666364.68456,51.145128,99.918245,47U,2214.028076,5,6, Bedding,56,95,5,-2.249, Lower erkhelnuur,Tue Jul  9 20:33:54 2019,
6e87573a7b38a6f7f29f7fac315c8c3c,Locality 7,d87177536ac39d4939b5616074384803,561997.190609,5665802.819072,51.140322,99.886217,47U,1970.271729,5,8, Bedding,51,208,118,-2.249, Middle Erkhelnuur,Tue Jul  9 19:32:12 2019,
6e87573a7b38a6f7f29f7fac315c8c3c,Locality 7,eefead9d314ffdb916ce1d2a8cccd842,561968.652007,5665767.912848,51.140012,99.885803,47U,1957.478516,5,4, Bedding,38,209,119,-2.249, Middle Erkhelnuur,Tue Jul  9 19:27:13 2019,
6e87573a7b38a6f7f29f7fac315c8c3c,Locality 7,b8688ec50659b4716d9ef92821f2b770,561967.182751,5665771.582142,51.140045,99.885782,47U,1966.794922,5,8, Bedding,37,201,111,-2.249, Middle Erkhelnuur,Tue Jul  9 19:27:02 2019,
6e87573a7b38a6f7f29f7fac315c8c3c,Locality 7,5b2085506f9b95b151fbe6920a31c2c4,561827.815957,5665777.140285,51.14011,99.883792,47U,1928.569092,5,6, Bedding,43,158,68,-2.249, Middle Erkhelnuur,Tue Jul  9 19:22:33 2019,
6e87573a7b38a6f7f29f7fac315c8c3c,Locality 7,1612610246cf3b3cef92351daca717f6,561637.163987,5665810.656043,51.140432,99.881072,47U,1905.296875,5,6, Bedding,47,174,84,-2.249, Lower erkhelnuur,Tue Jul  9 19:16:14 2019,
6e87573a7b38a6f7f29f7fac315c8c3c,Locality 7,a6adf9604b92892d6d7dd9f54324aacf,561628.729577,5665804.397653,51.140376,99.880951,47U,1879.40332,5,4, Bedding,51,184,94,-2.249, Lower erkhelnuur,Tue Jul  9 19:10:04 2019, Possible  hard to be certain in big homog gs
6e87573a7b38a6f7f29f7fac315c8c3c,Locality 7,5b721e601387a804ad7a79dbf23964ae,561564.971215,5665731.815489,51.139731,99.880027,47U,1852.668945,5,12, Bedding,62,244,154,-2.249, Middle Erkhelnuur,Tue Jul  9 19:05:50 2019,
6e87573a7b38a6f7f29f7fac315c8c3c,Locality 7,7f2ac8cdeeac99a058931c0e02a68587,561543.651752,5665669.674334,51.139174,99.879712,47U,1821.849854,10,12, Bedding,71,201,111,-2.249, Middle Erkhelnuur,Tue Jul  9 19:03:51 2019,
6e87573a7b38a6f7f29f7fac315c8c3c,Locality 7,209f08be80fd0909529a0860868f4f8b,561501.371368,5665570.716022,51.138289,99.879091,47U,1805.064941,5,12, Bedding,56,210,120,-2.249, Middle Erkhelnuur,Tue Jul  9 18:58:56 2019,
6e87573a7b38a6f7f29f7fac315c8c3c,Locality 7,88740384f343d978156ca12263a6b540,561506.450325,5665565.309171,51.13824,99.879162,47U,1806.462402,10,16, Bedding,56,232,142,-2.249, Middle Erkhelnuur,Tue Jul  9 18:58:43 2019,
6e87573a7b38a6f7f29f7fac315c8c3c,Locality 7,3e66050354404f01b0ce6244f589c3f5,561468.91214,5665545.493664,51.138066,99.878622,47U,1807.078125,5,16, Bedding,45,203,113,-2.249, Middle Erkhelnuur,Tue Jul  9 18:53:43 2019, Possible
6e87573a7b38a6f7f29f7fac315c8c3c,Locality 7,246644a1cb97c4a50a53548dbf4c3401,558894.844825,5666273.794758,51.144885,99.841953,47U,1683.924805,5,3, Bedding,32,248,158,-2.249, Middle Erkhelnuur,Tue Jul  9 03:37:21 2019, Change in bioturb
6e87573a7b38a6f7f29f7fac315c8c3c,Locality 7,40461923c34fa7c70e76af5fab90a63d,558899.834424,5666272.304372,51.144871,99.842024,47U,1684.504395,5,3, Bedding,70,10,280,-2.249, Middle Erkhelnuur,Tue Jul  9 03:36:39 2019,
6e87573a7b38a6f7f29f7fac315c8c3c,Locality 7,8747c6d761323ad7776143c56ded543f,558900.441726,5666273.038457,51.144877,99.842033,47U,1684.332031,5,3, Bedding,54,30,300,-2.249, Middle Erkhelnuur,Tue Jul  9 03:36:31 2019,
6e87573a7b38a6f7f29f7fac315c8c3c,Locality 7,786becba276a4464a29a966164b5b181,558900.947115,5666273.967143,51.144886,99.84204,47U,1685.885986,5,3, Bedding,53,51,321,-2.249, Middle Erkhelnuur,Tue Jul  9 03:36:21 2019,
6e87573a7b38a6f7f29f7fac315c8c3c,Locality 7,b3de609e1671e64f868b6bdfa62b4269,558901.435831,5666273.790953,51.144884,99.842047,47U,1686.294922,5,3, Bedding,44,79,349,-2.249, Middle Erkhelnuur,Tue Jul  9 03:36:15 2019,
6e87573a7b38a6f7f29f7fac315c8c3c,Locality 7,27f356612a2b2f7385ea849b8bb33061,558957.414821,5666220.833777,51.144402,99.842838,47U,1681.587402,10,4, Bedding,33,212,122,-2.249, Middle Erkhelnuur,Tue Jul  9 03:29:36 2019, Possible
6e87573a7b38a6f7f29f7fac315c8c3c,Locality 7,0e515a3d0270d623914157e7c1e3abe4,558939.668929,5666229.687057,51.144483,99.842586,47U,1687.331875,10,4, Bedding,78,15,285,-2.249, Middle Erkhelnuur,Tue Jul  9 03:23:44 2019,
